ZHONGXING-2C            
1 41021U 15063A   26155.82094333 -.00000311  00000+0  00000+0 0  9998
2 41021   0.2418  90.5925 0007450  95.6744 105.9785  1.00270330 38851
GSAT-15                 
1 41028U 15065A   26155.71989234 -.00000246  00000+0  00000+0 0  9995
2 41028   0.0455 115.8646 0004225 318.8747 171.0964  1.00271140 38671
BADR-7 (ARABSAT-6B)     
1 41029U 15065B   26155.73996572  .00000157  00000+0  00000+0 0  9991
2 41029   0.0439 243.3281 0003070 313.8694 348.3880  1.00269229 38647
LAOSAT 1                
1 41034U 15067A   26155.72968690 -.00000331  00000+0  00000+0 0  9993
2 41034   0.0380 220.1145 0002281 180.2584 244.0116  1.00268819 38735
TELSTAR 12V             
1 41036U 15068A   26155.63340184 -.00000107  00000+0  00000+0 0  9999
2 41036   0.0177   4.4208 0002562  65.6762  36.0184  1.00271915 38500
ELEKTRO-L 2             
1 41105U 15074A   26155.06310514 -.00000107  00000+0  00000+0 0  9994
2 41105   6.6614  70.6831 0001329 280.5449 269.5208  1.00272364 38376
COSMOS 2513             
1 41121U 15075A   26155.79488734 -.00000126  00000+0  00000+0 0  9994
2 41121   0.0779 102.0054 0003867 328.5912 189.0584  1.00268861 38424
EXPRESS-AMU1            
1 41191U 15082A   26155.74884685  .00000168  00000+0  00000+0 0  9994
2 41191   0.0153 308.0902 0003126 131.0941 119.7114  1.00273252 38142
GAOFEN-4                
1 41194U 15083A   26155.84003009 -.00000322  00000+0  00000+0 0  9995
2 41194   0.3257  83.7899 0004307 109.1114 108.4897  1.00270188 38402
BELINTERSAT-1           
1 41238U 16001A   26155.76105220  .00000119  00000+0  00000+0 0  9997
2 41238   0.0430 142.1978 0002180 249.2260 187.2561  1.00271973 38118
IRNSS-1E                
1 41241U 16003A   26155.65845063 -.00000298  00000+0  00000+0 0  9996
2 41241  33.2080  59.9318 0017864 179.9261   2.0458  1.00270961 37955
EUTELSAT 9B             
1 41310U 16005A   26155.63816852  .00000074  00000+0  00000+0 0  9998
2 41310   0.0507  67.2659 0002130 336.8048  87.7340  1.00271751 37997
SES-9                   
1 41380U 16013A   26155.65660830 -.00000333  00000+0  00000+0 0  9998
2 41380   0.0099 344.6307 0002474  96.2703 156.8847  1.00271621 37310
EUTELSAT 65 WEST A      
1 41382U 16014A   26155.48090479 -.00000264  00000+0  00000+0 0  9991
2 41382   0.0483 355.8323 0002564  68.5082 296.4987  1.00275111 37395
IRNSS-1F                
1 41384U 16015A   26155.57144295  .00000169  00000+0  00000+0 0  9993
2 41384   5.3176  97.0660 0016696 186.9497 207.2181  1.00276523 37540
BEIDOU-2 IGSO-6         
1 41434U 16021A   26155.65446394 -.00000144  00000+0  00000+0 0  9994
2 41434  60.2080  38.1652 0057274 231.5153 312.6127  1.00262242 37353
IRNSS-1G                
1 41469U 16027A   26155.66183064 -.00000322  00000+0  00000+0 0  9999
2 41469   5.1674  97.7623 0007423 351.7578 171.4300  1.00272552 37050
JCSAT-2B                
1 41471U 16028A   26155.59766779 -.00000153  00000+0  00000+0 0  9997
2 41471   0.0176 327.5570 0001202 110.5280 184.1229  1.00270658 37000
THAICOM 8               
1 41552U 16031A   26155.58062965 -.00000110  00000+0  00000+0 0  9999
2 41552   0.0590  38.2166 0003982  17.3038 125.0820  1.00271348 36590
INTELSAT 31 (IS-31)     
1 41581U 16035A   26155.60736306 -.00000139  00000+0  00000+0 0  9996
2 41581   0.0155 264.3796 0000692 318.4264 153.8560  1.00272915 36558
BEIDOU-2 G7             
1 41586U 16037A   26155.81087606 -.00000341  00000+0  00000+0 0  9993
2 41586   1.6896  69.2178 0007358   0.6331 225.8827  1.00271448  6765
ABS-2A (MONGOLSAT-1)    
1 41588U 16038A   26155.57984965  .00000000  00000+0  00000+0 0  9994
2 41588   0.0216 326.5880 0001780  52.9332 157.0047  1.00274695 36589
EUTELSAT 117 WEST B     
1 41589U 16038B   26155.61598653  .00000001  00000+0  00000+0 0  9996
2 41589   0.0101 156.0147 0000365 186.2574  15.5441  1.00267792 36533
BRISAT                  
1 41591U 16039A   26155.62128067 -.00000184  00000+0  00000+0 0  9992
2 41591   0.0170 307.0473 0002272 126.1649 194.0173  1.00271243 36482
ECHOSTAR 18             
1 41592U 16039B   26155.69412780 -.00000270  00000+0  00000+0 0  9994
2 41592   0.0177 350.3252 0001685  87.6057   3.7344  1.00270746 36491
MUOS-5                  
1 41622U 16041A   26155.61556721 -.00000114  00000+0  00000+0 0  9994
2 41622   2.2310 301.4093 0196522 260.8858 167.1445  1.00270546 36964
TIANTONG-1 1            
1 41725U 16048A   26155.80400741 -.00000307  00000+0  00000+0 0  9990
2 41725   3.8252  43.3095 0006239  39.9272 200.8767  1.00273287 36141
JCSAT-16                
1 41729U 16050A   26155.66487997 -.00000239  00000+0  00000+0 0  9993
2 41729   0.0181 333.7078 0001270 111.1576 191.5450  1.00271160 35942
USA 270                 
1 41744U 16052A   26153.40338689  .00000089  00000+0  00000+0 0  9997
2 41744   4.1610  77.3749 0008496 336.5224 166.3382  1.00282212 27986
USA 271                 
1 41745U 16052B   26152.80896376 -.00000348  00000+0  00000+0 0  9992
2 41745   4.1306  77.4501 0010805 158.0330  68.9246  1.00265484 27762
INTELSAT 36 (IS-36)     
1 41747U 16053A   26155.77547014 -.00000012  00000+0  00000+0 0  9994
2 41747   0.0136  12.5415 0001622 330.1691 258.1691  1.00270753 35833
INSAT-3DR               
1 41752U 16054A   26155.50846492 -.00000065  00000+0  00000+0 0  9992
2 41752   0.0746  88.2995 0010336 186.9710 234.7366  1.00271467 35696
