OBJECT_NAME,OBJECT_ID,EPOCH,MEAN_MOTION,ECCENTRICITY,INCLINATION,RA_OF_ASC_NODE,ARG_OF_PERICENTER,MEAN_ANOMALY,EPHEMERIS_TYPE,CLASSIFICATION_TYPE,NORAD_CAT_ID,ELEMENT_SET_NO,REV_AT_EPOCH,BSTAR,MEAN_MOTION_DOT,MEAN_MOTION_DDOT
ZHONGXING-2C,2015-063A,2026-06-04T19:42:09.503712,1.00270330,.000745,0.2418,90.5925,95.6744,105.9785,0,U,41021,999,3885,0,-.311E-5,0
GSAT-15,2015-065A,2026-06-04T17:16:38.698176,1.00271140,.0004225,0.0455,115.8646,318.8747,171.0964,0,U,41028,999,3867,0,-.246E-5,0
BADR-7 (ARABSAT-6B),2015-065B,2026-06-04T17:45:33.038208,1.00269229,.000307,0.0439,243.3281,313.8694,348.3880,0,U,41029,999,3864,0,.157E-5,0
LAOSAT 1,2015-067A,2026-06-04T17:30:44.948160,1.00268819,.0002281,0.0380,220.1145,180.2584,244.0116,0,U,41034,999,3873,0,-.331E-5,0
TELSTAR 12V,2015-068A,2026-06-04T15:12:05.918976,1.00271915,.0002562,0.0177,4.4208,65.6762,36.0184,0,U,41036,999,3850,0,-.107E-5,0
ELEKTRO-L 2,2015-074A,2026-06-04T01:30:52.284096,1.00272364,.00013296,6.6614,70.6831,280.5449,269.5208,0,U,41105,999,3837,0,-.107E-5,0
COSMOS 2513,2015-075A,2026-06-04T19:04:38.266176,1.00268861,.0003867,0.0779,102.0054,328.5912,189.0584,0,U,41121,999,3842,0,-.126E-5,0
EXPRESS-AMU1,2015-082A,2026-06-04T17:58:20.367840,1.00273252,.0003126,0.0153,308.0902,131.0941,119.7114,0,U,41191,999,3814,0,.168E-5,0
GAOFEN-4,2015-083A,2026-06-04T20:09:38.599776,1.00270188,.0004307,0.3257,83.7899,109.1114,108.4897,0,U,41194,999,3840,0,-.322E-5,0
BELINTERSAT-1,2016-001A,2026-06-04T18:15:54.910080,1.00271973,.000218,0.0430,142.1978,249.2260,187.2561,0,U,41238,999,3811,0,.119E-5,0
IRNSS-1E,2016-003A,2026-06-04T15:48:10.134432,1.00270961,.0017864,33.2080,59.9318,179.9261,2.0458,0,U,41241,999,3795,0,-.298E-5,0
EUTELSAT 9B,2016-005A,2026-06-04T15:18:57.760128,1.00271751,.000213,0.0507,67.2659,336.8048,87.7340,0,U,41310,999,3799,0,.74E-6,0
SES-9,2016-013A,2026-06-04T15:45:30.957120,1.00271621,.0002474,0.0099,344.6307,96.2703,156.8847,0,U,41380,999,3731,0,-.333E-5,0
EUTELSAT 65 WEST A,2016-014A,2026-06-04T11:32:30.173856,1.00275111,.0002564,0.0483,355.8323,68.5082,296.4987,0,U,41382,999,3739,0,-.264E-5,0
IRNSS-1F,2016-015A,2026-06-04T13:42:52.670880,1.00276523,.0016696,5.3176,97.0660,186.9497,207.2181,0,U,41384,999,3754,0,.169E-5,0
BEIDOU-2 IGSO-6,2016-021A,2026-06-04T15:42:25.684416,1.00262242,.0057274,60.2080,38.1652,231.5153,312.6127,0,U,41434,999,3735,0,-.144E-5,0
IRNSS-1G,2016-027A,2026-06-04T15:53:02.167296,1.00272552,.0007423,5.1674,97.7623,351.7578,171.4300,0,U,41469,999,3705,0,-.322E-5,0
JCSAT-2B,2016-028A,2026-06-04T14:20:38.497056,1.00270658,.0001202,0.0176,327.5570,110.5280,184.1229,0,U,41471,999,3700,0,-.153E-5,0
THAICOM 8,2016-031A,2026-06-04T13:56:06.401760,1.00271348,.0003982,0.0590,38.2166,17.3038,125.0820,0,U,41552,999,3659,0,-.11E-5,0
INTELSAT 31 (IS-31),2016-035A,2026-06-04T14:34:36.168384,1.00272915,.0000692,0.0155,264.3796,318.4264,153.8560,0,U,41581,999,3655,0,-.139E-5,0
BEIDOU-2 G7,2016-037A,2026-06-04T19:27:39.691584,1.00271448,.0007358,1.6896,69.2178,0.6331,225.8827,0,U,41586,999,676,0,-.341E-5,0
ABS-2A (MONGOLSAT-1),2016-038A,2026-06-04T13:54:59.009760,1.00274695,.000178,0.0216,326.5880,52.9332,157.0047,0,U,41588,999,3658,0,0,0
EUTELSAT 117 WEST B,2016-038B,2026-06-04T14:47:01.236192,1.00267792,.0000365,0.0101,156.0147,186.2574,15.5441,0,U,41589,999,3653,0,.1E-7,0
BRISAT,2016-039A,2026-06-04T14:54:38.649888,1.00271243,.0002272,0.0170,307.0473,126.1649,194.0173,0,U,41591,999,3648,0,-.184E-5,0
ECHOSTAR 18,2016-039B,2026-06-04T16:39:32.641920,1.00270746,.0001685,0.0177,350.3252,87.6057,3.7344,0,U,41592,999,3649,0,-.27E-5,0
MUOS-5,2016-041A,2026-06-04T14:46:25.006944,1.00270546,.0196522,2.2310,301.4093,260.8858,167.1445,0,U,41622,999,3696,0,-.114E-5,0
TIANTONG-1 1,2016-048A,2026-06-04T19:17:46.240224,1.00273287,.0006239,3.8252,43.3095,39.9272,200.8767,0,U,41725,999,3614,0,-.307E-5,0
JCSAT-16,2016-050A,2026-06-04T15:57:25.629408,1.00271160,.000127,0.0181,333.7078,111.1576,191.5450,0,U,41729,999,3594,0,-.239E-5,0
USA 270,2016-052A,2026-06-02T09:40:52.627296,1.00282212,.0008496,4.1610,77.3749,336.5224,166.3382,0,U,41744,999,2798,0,.89E-6,0
USA 271,2016-052B,2026-06-01T19:24:54.468864,1.00265484,.0010805,4.1306,77.4501,158.0330,68.9246,0,U,41745,999,2776,0,-.348E-5,0
INTELSAT 36 (IS-36),2016-053A,2026-06-04T18:36:40.620096,1.00270753,.0001622,0.0136,12.5415,330.1691,258.1691,0,U,41747,999,3583,0,-.12E-6,0
INSAT-3DR,2016-054A,2026-06-04T12:12:11.369088,1.00271467,.0010336,0.0746,88.2995,186.9710,234.7366,0,U,41752,999,3569,0,-.65E-6,0
